{
  "norad_id": 66156,
  "name": "STARLINK-35621",
  "history": [
    {
      "epoch": "2026-03-28T21:11:53.784096Z",
      "apogee_km": 475.98766421157325,
      "perigee_km": 474.4272947404852,
      "latitude_deg": 3.195979199064352e-05,
      "longitude_deg": -170.36709466068234,
      "height_km": 475.7159316456869,
      "semi_major_axis_km": 6853.344479476029,
      "eccentricity": 0.00011384,
      "inclination_deg": 53.1603,
      "raan_deg": 333.9043,
      "arg_perigee_deg": 60.0042,
      "mean_anomaly_deg": 300.1072,
      "mean_motion_rev_day": 15.30202542
    },
    {
      "epoch": "2026-03-29T01:54:03.147840Z",
      "apogee_km": 475.9558900594948,
      "perigee_km": 474.46049013901575,
      "latitude_deg": 2.6646896053817183e-05,
      "longitude_deg": 117.9915568129635,
      "height_km": 476.1357716842226,
      "semi_major_axis_km": 6853.345190099255,
      "eccentricity": 0.0001091,
      "inclination_deg": 53.1612,
      "raan_deg": 332.9951,
      "arg_perigee_deg": 92.2333,
      "mean_anomaly_deg": 267.8793,
      "mean_motion_rev_day": 15.30202304
    },
    {
      "epoch": "2026-03-30T01:24:51.041376Z",
      "apogee_km": 475.9968129503568,
      "perigee_km": 474.3638045020334,
      "latitude_deg": 2.0940117778731737e-05,
      "longitude_deg": 119.77643962480768,
      "height_km": 475.92345745526757,
      "semi_major_axis_km": 6853.317308726195,
      "eccentricity": 0.00011914,
      "inclination_deg": 53.1616,
      "raan_deg": 328.4452,
      "arg_perigee_deg": 79.0398,
      "mean_anomaly_deg": 281.0737,
      "mean_motion_rev_day": 15.30211642
    },
    {
      "epoch": "2026-03-30T21:47:32.124480Z",
      "apogee_km": 476.1327445664747,
      "perigee_km": 474.47174503110455,
      "latitude_deg": -2.599442133551421e-05,
      "longitude_deg": 169.3232280876539,
      "height_km": 475.5299489334721,
      "semi_major_axis_km": 6853.439244798789,
      "eccentricity": 0.00012118,
      "inclination_deg": 53.161,
      "raan_deg": 324.5001,
      "arg_perigee_deg": 36.0778,
      "mean_anomaly_deg": 324.0304,
      "mean_motion_rev_day": 15.30170804
    },
    {
      "epoch": "2026-03-31T21:18:22.310208Z",
      "apogee_km": 475.8499775424716,
      "perigee_km": 474.68763991731066,
      "latitude_deg": 9.099334033644122e-06,
      "longitude_deg": 171.09986516420895,
      "height_km": 476.1771255089783,
      "semi_major_axis_km": 6853.405808729891,
      "eccentricity": 8.48e-05,
      "inclination_deg": 53.1609,
      "raan_deg": 319.9515,
      "arg_perigee_deg": 90.9452,
      "mean_anomaly_deg": 269.1646,
      "mean_motion_rev_day": 15.30182002
    },
    {
      "epoch": "2026-04-01T20:49:09.501312Z",
      "apogee_km": 475.7091474226836,
      "perigee_km": 474.55642744443685,
      "latitude_deg": 3.832365321026372e-05,
      "longitude_deg": 172.88530950563037,
      "height_km": 475.82300436352693,
      "semi_major_axis_km": 6853.26978743356,
      "eccentricity": 8.41e-05,
      "inclination_deg": 53.1603,
      "raan_deg": 315.3992,
      "arg_perigee_deg": 68.7868,
      "mean_anomaly_deg": 291.3223,
      "mean_motion_rev_day": 15.30227558
    },
    {
      "epoch": "2026-04-02T07:47:30.757920Z",
      "apogee_km": 475.62670443519164,
      "perigee_km": 474.51264715797424,
      "latitude_deg": 7.142713239431463e-06,
      "longitude_deg": 5.722789974850071,
      "height_km": 475.8890836284778,
      "semi_major_axis_km": 6853.206675796582,
      "eccentricity": 8.128e-05,
      "inclination_deg": 53.1599,
      "raan_deg": 313.2759,
      "arg_perigee_deg": 81.8155,
      "mean_anomaly_deg": 278.2938,
      "mean_motion_rev_day": 15.30248696
    },
    {
      "epoch": "2026-04-02T21:53:59.679456Z",
      "apogee_km": 476.2182312144405,
      "perigee_km": 474.11467825204454,
      "latitude_deg": 7.008904156339376e-05,
      "longitude_deg": 150.79153452317377,
      "height_km": 475.44872301270226,
      "semi_major_axis_km": 6853.303454733242,
      "eccentricity": 0.00015347,
      "inclination_deg": 53.1606,
      "raan_deg": 310.5445,
      "arg_perigee_deg": 54.155,
      "mean_anomaly_deg": 305.9594,
      "mean_motion_rev_day": 15.30216282
    },
    {
      "epoch": "2026-04-03T18:16:42.606336Z",
      "apogee_km": 476.13596164726823,
      "perigee_km": 474.39930891268796,
      "latitude_deg": -1.826066441927019e-05,
      "longitude_deg": -159.6673122819986,
      "height_km": 476.0359802902274,
      "semi_major_axis_km": 6853.404635279978,
      "eccentricity": 0.0001267,
      "inclination_deg": 53.1591,
      "raan_deg": 306.6015,
      "arg_perigee_deg": 81.4127,
      "mean_anomaly_deg": 278.7017,
      "mean_motion_rev_day": 15.30182395
    },
    {
      "epoch": "2026-04-04T20:55:36.040224Z",
      "apogee_km": 476.04975533308425,
      "perigee_km": 474.4063183972439,
      "latitude_deg": 2.088879679905514e-05,
      "longitude_deg": 154.35647313734808,
      "height_km": 475.7170915791741,
      "semi_major_axis_km": 6853.365036865163,
      "eccentricity": 0.0001199,
      "inclination_deg": 53.1577,
      "raan_deg": 301.4423,
      "arg_perigee_deg": 60.1425,
      "mean_anomaly_deg": 299.9695,
      "mean_motion_rev_day": 15.30195657
    },
    {
      "epoch": "2026-04-05T14:10:11.141472Z",
      "apogee_km": 476.6614145585463,
      "perigee_km": 473.6300705358635,
      "latitude_deg": -5.0805704030650556e-05,
      "longitude_deg": -108.33428494506124,
      "height_km": 475.59330906043124,
      "semi_major_axis_km": 6853.282742547205,
      "eccentricity": 0.00022116,
      "inclination_deg": 53.158,
      "raan_deg": 298.106,
      "arg_perigee_deg": 72.7636,
      "mean_anomaly_deg": 287.3606,
      "mean_motion_rev_day": 15.30223219
    },
    {
      "epoch": "2026-04-05T20:26:23.669376Z",
      "apogee_km": 475.94038884533074,
      "perigee_km": 474.46143852355726,
      "latitude_deg": -8.311193571618008e-06,
      "longitude_deg": 156.14334087702298,
      "height_km": 475.99587729337674,
      "semi_major_axis_km": 6853.337913684444,
      "eccentricity": 0.0001079,
      "inclination_deg": 53.1579,
      "raan_deg": 296.8933,
      "arg_perigee_deg": 81.9805,
      "mean_anomaly_deg": 278.1318,
      "mean_motion_rev_day": 15.30204741
    },
    {
      "epoch": "2026-04-05T23:34:29.958816Z",
      "apogee_km": 475.94307894491885,
      "perigee_km": 474.34160462833006,
      "latitude_deg": 2.4358201113277236e-05,
      "longitude_deg": 108.38180580786182,
      "height_km": 475.78793072686454,
      "semi_major_axis_km": 6853.279341786624,
      "eccentricity": 0.00011684,
      "inclination_deg": 53.1581,
      "raan_deg": 296.2867,
      "arg_perigee_deg": 71.6181,
      "mean_anomaly_deg": 288.4947,
      "mean_motion_rev_day": 15.30224358
    },
    {
      "epoch": "2026-04-07T19:27:59.592960Z",
      "apogee_km": 476.03765661924444,
      "perigee_km": 474.4312263533593,
      "latitude_deg": -7.092969559179e-05,
      "longitude_deg": 159.70939179444505,
      "height_km": 476.0996723682332,
      "semi_major_axis_km": 6853.371441486302,
      "eccentricity": 0.0001172,
      "inclination_deg": 53.1587,
      "raan_deg": 287.7904,
      "arg_perigee_deg": 87.6562,
      "mean_anomaly_deg": 272.4572,
      "mean_motion_rev_day": 15.30193512
    },
    {
      "epoch": "2026-04-08T12:42:34.651872Z",
      "apogee_km": 475.917035310903,
      "perigee_km": 474.45001351944666,
      "latitude_deg": 1.4558006764383758e-06,
      "longitude_deg": -102.98198306276036,
      "height_km": 475.91194241910773,
      "semi_major_axis_km": 6853.320524415175,
      "eccentricity": 0.00010703,
      "inclination_deg": 53.1591,
      "raan_deg": 284.4532,
      "arg_perigee_deg": 76.609,
      "mean_anomaly_deg": 283.503,
      "mean_motion_rev_day": 15.30210565
    }
  ]
}